rank,channel_id,channel_name,channel_url,latest_video_id,latest_video_title,latest_video_thumbnail,latest_video_published_at,description,classification,subs,views,videos
1,UCe68ABxGwMZO3J8y_gerZ6A,Obinna TV,https://www.youtube.com/channel/UCe68ABxGwMZO3J8y_gerZ6A,t_1JL5gu-tA,I ONLY DATE OLDER MEN,https://i.ytimg.com/vi/t_1JL5gu-tA/mqdefault.jpg,2025-09-22T07:02:07Z,"Welcome to Obinna TV. Dive into captivating interviews on ""Obinna Show Live."" Join Oga Obinna as he chats with personalities and celebrities in action. Get life-changing conversations that will leave you feeling motivated and empowered. Each episode offers valuable insights and advice on finding inspiration and encouragement to live your best life and catch up with those who've made a difference in life.

In addition, don't miss ""Safari za Mabingwa,"" a compelling series that delves into the extraordinary journeys of athletes, both with and without disabilities, who have overcome immense challenges to achieve greatness. From Paralympians to powerlifters and beyond, these athletes share their unique stories of resilience, hope, and the relentless pursuit of their dreams. ""Safari za Mabingwa"" is more than just a show about sports; it's a celebration of the human spirit and the power of perseverance. Tune in to be inspired by the champions who redefine what it means to be victorious.
",interview,738000,108280511,1631
2,UC_9xRXWjRrz_Jy7SWhUnBBw,Obinna TV Extra,https://www.youtube.com/channel/UC_9xRXWjRrz_Jy7SWhUnBBw,GBt3HTI6cZg,Obinna Show Live: The Secret Behind Mbusii & Lion‚Äôs Resilience,https://i.ytimg.com/vi/GBt3HTI6cZg/mqdefault.jpg,2025-09-22T07:00:06Z,"Welcome to ObinnaTV Extra, the channel where you get to experience Obinna LIVE in action! Join us for exclusive LIVE activations, interviews, and behind-the-scenes moments that showcase the best of Obinna's uplifting and inspiring personality. Our aim is to create lasting memories and inspire others to live their best lives through Obinna's infectious energy and positive attitude. Subscribe now to be a part of the ObinnaTV Extra community and stay updated on all our exciting content!",interview,591000,95732632,1683
3,UCUhrpGr_luwUzVaxiW5Jkhw,Switch TV,https://www.youtube.com/channel/UCUhrpGr_luwUzVaxiW5Jkhw,a3pNvB-GDFQ,President Ruto Arrives in New York for UN meeting,https://i.ytimg.com/vi/a3pNvB-GDFQ/mqdefault.jpg,2025-09-21T14:00:09Z,"Subscribe to Switch TV channel and you will be entertained  with talk shows, inspirational shows, news, hip hop shows, and sports across Kenya and beyond",podcast,667000,93265632,8085
4,UCMD-JmezXoQiV9PiWLwVpGQ,Presenter Ali,https://www.youtube.com/channel/UCMD-JmezXoQiV9PiWLwVpGQ,qnN2m1WXiFk,SELF MADE FOREX TRADER! HOW I BECAME A SUCCESSFUL FOREX TRADER- MISS GLOW FX,https://i.ytimg.com/vi/qnN2m1WXiFk/mqdefault.jpg,2025-09-19T10:21:46Z,"Presenter Ali ‚Äì The Mind Of A Trader

I‚Äôm an East African financial content creator simplifying the world of Trading. From exclusive interviews with top traders, behind-the-scenes trader house tours, to spotlighting upcoming talent in the financial markets ‚Äî I break down complex strategies into content anyone can understand.
I also identify unique trader stories and journeys, helping others learn, grow, and win in the markets.

 DISCLAIMER: The views and opinions expressed by interviewees do not represent the official position of Presenter Ali. Always do your own research before making financial decisions.

üì≤ For adverts & promo partnerships: Email or DM me on Instagram @Presenter_ali
MILESTONES: 
50,000 subscribers:5th August 2021 
100,000 Subscribers:13th September 2021
200,000 Subscribers : 24th January 2022
300,000 Subscribers : 10th September 2022
400,000 Subscribers: 2nd October2023 
500,000 Subscribers: 14th September 2025
600K?
",interview,501000,55127123,1929
5,UC5h4-WH0LAV4CWs380yM33A,Iko Nini Podcast,https://www.youtube.com/channel/UC5h4-WH0LAV4CWs380yM33A,qhzld9BIo-k,How to Land a High-Paying Remote Job in 2025 (Even With No Experience) |,https://i.ytimg.com/vi/qhzld9BIo-k/mqdefault.jpg,2025-09-22T07:00:59Z,"Iko Nini is a Kenya podcast that strives to inspire, inform, educate and entertain.
IKO NINI sits with everyone from artists to politicians, comics to lawyers, atheists to believers.
This has made us the number one in Kenya‚Äôs Most Honest & ‚ÄúREAL‚Äù Conversations",podcast,210000,66234139,4479
6,UCEMsE6ZgO2sYnFBGxQK9vPA,Zabe,https://www.youtube.com/channel/UCEMsE6ZgO2sYnFBGxQK9vPA,y0jqjFxnt4A,"TIME TRAVELLER ,BEING FRIENDS WITH JOMO KENYATTA",https://i.ytimg.com/vi/y0jqjFxnt4A/mqdefault.jpg,2025-09-22T07:15:59Z,"Zabe,"" hosted by the comedic duo Oga Obinna and Kartelo, is a popular Kenyan online comedy show known for its satirical skits and commentary on current affairs and social issues. The show features the pair's signature blend of humor and observational comedy, often incorporating trending topics and relatable everyday experiences. Oga Obinna, with his energetic delivery and diverse character portrayals, and Kartelo, known for his unique Sheng slang and comedic storytelling, bring a dynamic and fresh perspective to the show. ""Zabe"" aims to entertain while also sparking conversations about relevant issues, connecting with a wide audience through its accessible humor and relatable content. While information on the show's current status and frequency of new episodes may vary, its popularity and impact on the Kenyan comedy scene are undeniable.",podcast,216000,17210209,268
7,UCD-Mf4F5ZQ1Jw-nb2gqD1mw,Engage Talk,https://www.youtube.com/channel/UCD-Mf4F5ZQ1Jw-nb2gqD1mw,KPW1S6QKSAI,"My Rise, Fall & Comeback | Jimmi Gathu",https://i.ytimg.com/vi/KPW1S6QKSAI/mqdefault.jpg,2025-09-16T09:15:04Z,"At Engage, fascinating thinkers and doers combine to spark discussion and connection with the audience on a diverse mix of topics. https://linktr.ee/EngageKe 
Every week, we have a new video of someone like you and I sharing their stories, experiences, dreams, aspirations, fears and ambitions. Inform. Inspire and Influence. We believe that the Inspiration we seek rests in people like us who seem ordinary and have gone through experiences that we can learn from or aspire to. We believe in the power of human connection and engagement. Subscribe and share!

Engage also provides an opportunity for talented artistes to showcase their skill and entertain the audience. 
Follow us on our social media pages  https://www.facebook.com/EngageKe/ ; @engagetalks on Instagram and @EngageKe on Twitter.  You can reach us on info@engage.or.ke and +254702547254.",interview,210000,28615344,934
8,UCFFImqk3FPSvKWBoturxJ7g,Evans From Kenya COMMENTARIES,https://www.youtube.com/channel/UCFFImqk3FPSvKWBoturxJ7g,m5pmnt4OW8g,White Ashkenazi Scholar CONFESSES that Black people in America are the ORIGINAL Jews from the Bible.,https://i.ytimg.com/vi/m5pmnt4OW8g/mqdefault.jpg,2025-09-20T18:49:56Z,"This is  EVANS FROM KENYA - I major on Thoughtful Commentaries, African Diaspora interviews, Engaging Reactions, and Compelling Documentaries. , expect these on my channel.  
I talk to African American and advice them to move to Africa and find a path to a peaceful life. I do these by the help of the commentaries, REaction videos on Africans, African leaders and even the African DIASPORA also even my interviews educating African Americans about the problems and the strengths of living in Africa. That's my point in a nutshell.

DO SUBSCRIBE TO NOT MISS.
For collabo and Business inquiries do not hesitate.
",interview,149000,23577184,953
9,UCn6KuzOF0Yp6RyFo-f7ybrQ,KENYA 360 NEWS,https://www.youtube.com/channel/UCn6KuzOF0Yp6RyFo-f7ybrQ,9I-rSQuQejc,DRAMA CBD KANJO HARASSING UBER DRIVER,https://i.ytimg.com/vi/9I-rSQuQejc/mqdefault.jpg,2025-09-18T11:54:06Z,Am a Kenyan Gospel Artist Doing Swahili and Kikuyu Songs.For live Performance and TvsRedio Stations interviews call me ¬±254758892706,interview,201000,15005555,1453
10,UC6fVFxrbf0HDRW3B2mdWFGA,TMI Podcast KE,https://www.youtube.com/channel/UC6fVFxrbf0HDRW3B2mdWFGA,X-1FVJwg75E,So...Are You Really Happy With Your Sex Life Right Now? Episode 194,https://i.ytimg.com/vi/X-1FVJwg75E/mqdefault.jpg,2025-09-17T09:00:51Z,"The Messy Inbetween Podcast! - Honest conversations about life as it is. Messy. 

Hosted by Lydia K.M. and Murugi Munyi",podcast,147000,16325192,413
11,UC-aT2XsRXmTHxnCeUiMNvTw,The Star Kenya,https://www.youtube.com/channel/UC-aT2XsRXmTHxnCeUiMNvTw,EtZpc6yUR90,The News Brief: Raila bigwigs take charge of Ruto 2027 bid,https://i.ytimg.com/vi/EtZpc6yUR90/mqdefault.jpg,2025-09-19T17:26:55Z,"The Star Kenya focuses on the latest political, human interest, business, sports, interviews, analysis, features and entertainment news.",interview,89700,26290336,14423
12,UCM0AhEzSsjf61sJntWDxcEg,The Dating Stories,https://www.youtube.com/channel/UCM0AhEzSsjf61sJntWDxcEg,w-b1-jWhUI0,I h√°ted men! My Journey from tr√°uma to true LOVE - Esther Nduta The Dating Stories,https://i.ytimg.com/vi/w-b1-jWhUI0/mqdefault.jpg,2025-09-21T17:00:06Z,"Your go-to podcast for juicy, unbelievable, and hilarious dating stories. We've got it all, from epic wins to epic fails. 
Subscribe to 'The Dating Stories' for honest conversations, dating tips, and a weekly dose of love and laughter.
Join my Channel Membership here: https://www.youtube.com/channel/UCM0AhEzSsjf61sJntWDxcEg/join
Email us on thedatingstories.tds@gmail.com  WhatsApp +254703372553
",podcast,52700,5081994,158
13,UCjSpvbZM2B9dzDDq2caHTeQ,Corporate Staffing Services Kenya,https://www.youtube.com/channel/UCjSpvbZM2B9dzDDq2caHTeQ,oPV53aaT9qc,The 10 Second Test   Do Hiring Managers Even Read Your CV,https://i.ytimg.com/vi/oPV53aaT9qc/mqdefault.jpg,2025-09-18T11:25:44Z,"Job Interview Videos. Help with job interviews in Kenya. Get access to top videos with information on how to handle job interviews in Kenya. Whether you are a fresh graduate or an experienced professional, we have something for you. Visit our website www.corporatestaffing.co.ke for more.",interview,54200,4354628,433
14,UCq9K26KI96tZEQrSomHSjqg,Simy Kenya TV,https://www.youtube.com/channel/UCq9K26KI96tZEQrSomHSjqg,zHr29XZqYQM,"Onjiri - ""Alcoholism nearly killed me before I reformed, the easiest way to kill someone is alcohol""",https://i.ytimg.com/vi/zHr29XZqYQM/mqdefault.jpg,2025-08-14T10:10:59Z,Host - The Talk Show with Simy Kenya üá∞üá™üá∞üá™,podcast,44600,5013332,747
15,UCR0SvwY_QW7XrsaCZ_youXg,ZOZA PODCAST,https://www.youtube.com/channel/UCR0SvwY_QW7XrsaCZ_youXg,TBTV_-ceSVc,Exercise Doesn't Make You Lose Weight! !Fitness trainer Caleb | | Zoza Sportscast 77,https://i.ytimg.com/vi/TBTV_-ceSVc/mqdefault.jpg,2025-09-20T13:54:41Z,"The Zoza Podcast is a popular , unfiltered Kenyan podcast , featuring friends Farii, Jonito, Muthoni, Vlad, and the Zoza Podcast family , that explores everything from culture and social issues to trending topics in Kenya & the world , serving up raw conversations, fresh perspectives, and hilarious moments. 

Join us for our new  episodes weekly 
Zoza Podcast episodes every thursday
Zoza Sports Cast episodes every tuesday

We appreciate our audience for the time they allocate to listen to us. ALWAYS WITH A K!!!!!!!!.
TO SUPPORT THIS PODCAST: M-PESA TILL: 8863960 



",podcast,19800,1701449,385
16,UC502eNk1mlq63bBG98K2Hjw,Jeff Koinange,https://www.youtube.com/channel/UC502eNk1mlq63bBG98K2Hjw,Fb4XVqFuSeI,My Home Doesn‚Äôt just Run‚Ä¶ it runs SMART,https://i.ytimg.com/vi/Fb4XVqFuSeI/mqdefault.jpg,2025-09-08T17:48:16Z,"Emmy & Peabody - Award Winning Journalist | Talk Show Host - Jeff Koinange Live | Author & ALL KENYAN, ALL THE TIME!
Jeff Koinange currently hosts the popular and controversial Talk Show, Jeff Koinange LIVE #JKL broadcast on Kenya‚Äôs most-watched Television Channel, CITIZEN TV. Mostly known as a journalist, broadcaster and television news anchor. Jeff is also a great negotiator, a skilled motivator, an excellent showman and a gifted presenter. Most people try to fit Jeff into moulds but rarely capture his essence. Jeff‚Äôs genius for reporting and keen understanding of his subject overshadow all his flaws, making him one of the most successful reporters to originate from Africa. Jeff makes interviewing look effortless but the subject is always treated with integrity and credibility.
He is the First Black African journalist to be prominently featured on international network television and at CNN. Jeff cemented his reputation as one of the most accomplished journalists of our time.
",podcast,23200,1279085,203
17,UCquxoW1DZM_FkQbuWhFLcNw,Chizzi Podcast,https://www.youtube.com/channel/UCquxoW1DZM_FkQbuWhFLcNw,VEUnwuk5Cxc,NILIPE HELA ZANGU - ZUCHU!!!!,https://i.ytimg.com/vi/VEUnwuk5Cxc/mqdefault.jpg,2025-09-21T13:32:11Z,Chizzi podcast is hosted by Stand up comedian and media personality Rapcha Sayantist. ,podcast,17300,800058,417
18,UCwvwwgcbtlmXwzCWsFTVSog,Raw Politics Kenya,https://www.youtube.com/channel/UCwvwwgcbtlmXwzCWsFTVSog,Qdx-RfQlojc,Does President Ruto DESERVE A Second Term?,https://i.ytimg.com/vi/Qdx-RfQlojc/mqdefault.jpg,2025-09-21T18:15:02Z,"Welcome to Raw Politics Channel where we go beyond sharing the latest political news in Kenya and thought-provoking interviews. We analyze the politics behind the news and tell you what was not said. 

Read more on our blog: https://rawpolitics.co.ke",interview,8830,871599,310
19,UCWSg6aESeaQTc3cBb6v4Z8w,The Kenya Times,https://www.youtube.com/channel/UCWSg6aESeaQTc3cBb6v4Z8w,kYYknrobdzw,"Paul Muite, Senior Counsel, urges the new leaders of the Safina Party to collaborate with Gen Z",https://i.ytimg.com/vi/kYYknrobdzw/mqdefault.jpg,2025-09-18T15:51:26Z,"üì∞ We are The Kenya Times. 

Welcome to the official YouTube channel of The Kenya Times, your trusted news source that is, By the people, for the People. 

We bring you the latest news, in-depth stories, and insightful analysis from Kenya and around the world. Our commitment to unbiased reporting and journalistic integrity has made us one of the leading voices in Kenyan media.

Stay updated with our daily news reports, exclusive interviews, and behind-the-scenes footage. From politics and business to culture and sports, we cover a wide range of topics that matter to you.

Join our community and be part of the conversation. Subscribe to our channel and hit the bell icon üîî to get notified about our latest videos. Don't forget to like, comment, and share our content.

#TheKenyaTimes #KenyaNews #ByThePeopleForThePeople
",interview,13700,400481,695
20,UCfo5Or9z7-eSbZZfLUpyiVg,Unprepared to Entrepreneur Podcast Kenya,https://www.youtube.com/channel/UCfo5Or9z7-eSbZZfLUpyiVg,Q6DB_07gJu4,The Best Business to Start Is Already in Your Story | Anne Muhia,https://i.ytimg.com/vi/Q6DB_07gJu4/mqdefault.jpg,2025-09-19T12:00:06Z,"An Entrepreneur , daring greatly and sharing her journey's lessons with you.
",podcast,6120,176181,33
21,UCAMTzTd4HxICgy1TVPeM6AA,KENYA DIGITAL MEDIA,https://www.youtube.com/channel/UCAMTzTd4HxICgy1TVPeM6AA,eWpxtDczkAA,H.E. President Ruto arrives at State House Nairobi for the launch of the SHA Sponsorship Programme!,https://i.ytimg.com/vi/eWpxtDczkAA/mqdefault.jpg,2025-09-19T16:30:46Z,"Welcome to Kenya Digital Media, where we bring you the vibrant stories, stunning landscapes, and rich cultures of Kenya right to your screen! üåç‚ú® Dive into a world of engaging content, from thrilling wildlife adventures and breathtaking travel vlogs to insightful interviews and local trends.

Join us as we showcase the creativity and resilience of the Kenyan people, highlighting everything from art and cuisine to technology and innovation. Whether you‚Äôre a local or an explorer from afar, our channel is your ultimate destination for all things Kenyan.

Hit that subscribe button and embark on a journey filled with inspiration, discovery, and a deeper connection to the beautiful tapestry of Kenya! üé•üá∞üá™ #DiscoverKenya #DigitalAfrica #KenyaDigitalMedia
",interview,1720,1428332,233
22,UCyM_kKYAciCS7-dwb4lgKhA,Walking The Streets Podcast,https://www.youtube.com/channel/UCyM_kKYAciCS7-dwb4lgKhA,xG0BX_FtLTI,WTS EP 100 You Were Chased With A Knife,https://i.ytimg.com/vi/xG0BX_FtLTI/mqdefault.jpg,2025-08-17T08:00:58Z,"Join us on the streets of banter and great  conversation on Kenya's No. #1 Entertainment Podcast
",podcast,4580,204031,88
23,UC_wEpaDe8rpr9Z3zhi81ETQ,The Golden Voice Live ,https://www.youtube.com/channel/UC_wEpaDe8rpr9Z3zhi81ETQ,TU878QaOJw8,Pamela Aely & Oga Obinna: Real Talk,https://i.ytimg.com/vi/TU878QaOJw8/mqdefault.jpg,2025-09-15T15:16:02Z,"Welcome to TheGoldenVoiceLive.

This is where faith meets fun! We‚Äôre all about HEALING, TEACHING truth, RAISING a generation of bold believers, and BUILDING a vibe that‚Äôs all about Jesus Christ.

Expect real talk, good vibes, and content that‚Äôll have you laughing, learning, and leveling up in faith. Whether it‚Äôs challenges, motivation, or deep conversations, we keep it fresh, fun, and full of fire!

Hit subscribe and let‚Äôs grow together. Let‚Äôs heal, teach, raise, and build‚ÄîTheGoldenVoiceLive way! #FaithVibes #FaithOneFire #TheGoldenVoiceLive",podcast,3370,154383,32
24,UCUc4W23onOq0760D6PnmuzQ,Be Different Podcast,https://www.youtube.com/channel/UCUc4W23onOq0760D6PnmuzQ,nuZ7yOkPEpk,The Nine lives of Nduku ep.88,https://i.ytimg.com/vi/nuZ7yOkPEpk/mqdefault.jpg,2025-05-02T15:08:06Z,The be different podcast is a Kenyan podcast that profiles individuals who have done and/or are doing things differently. Join us as we #daretobedifferent,podcast,4770,49021,73
25,UCtTR37Xeev6p9pj4EG8gX3Q,Talkchat Podcast-Inside Kenyan Politics,https://www.youtube.com/channel/UCtTR37Xeev6p9pj4EG8gX3Q,HYaicBR0aNk,Is Kenya Ready to Retire the Old Guard by 2027?,https://i.ytimg.com/vi/HYaicBR0aNk/mqdefault.jpg,2025-09-21T16:00:06Z,"Welcome to Talkchat Inside Politics with Dr Michael Ndonye, where Kenya‚Äôs political and governance landscape takes center stage. We dissect the policies, decisions, and power dynamics shaping our nation, fostering insightful conversations that matter. From in-depth analyses to exclusive interviews with key figures, our podcast is your gateway to understanding the forces driving change. Whether you're passionate about leadership, civic engagement, or national transformation, we bring you perspectives that inform, challenge, and empower. Join us as we amplify voices, question norms, and navigate the evolving story of Kenya‚Äôs governance. Subscribe now and be part of the dialogue shaping our future.

Copyright: All content on this channel is original and owned by Dexmumo Media Group Ltd. Unauthorized use or reproduction is prohibited. For copyright inquiries, contact: dexmumo@gmail.com 
",interview,1790,168285,157
26,UCdORIlD8FOe8TtITAQySGhg,the worst friends podcast,https://www.youtube.com/channel/UCdORIlD8FOe8TtITAQySGhg,Ozv1LPG8_QU,Worst piece of advice ever ! #relatable #trending #comedy,https://i.ytimg.com/vi/Ozv1LPG8_QU/mqdefault.jpg,2025-09-21T15:30:11Z,"Help us reach 2000 subs üëá 
To support the Channel Mpesa till -4655926
""Worst Friends: Unveiling the Irony"" is our lively weekly Kenyan podcast featuring 2 friends who had a meaningful conversation once and decided to start a podcast . Follow the lives of  this young creatives who use comedy as their preferred form of art . listen in like comment and share .



",podcast,1320,227027,662
27,UCvlFa8WlZMMpbk5HmqZ0Gzg,Two Nilotes In A Pod,https://www.youtube.com/channel/UCvlFa8WlZMMpbk5HmqZ0Gzg,ViCKlVtqzMQ,Does this happen in your culture ?,https://i.ytimg.com/vi/ViCKlVtqzMQ/mqdefault.jpg,2025-09-12T19:31:16Z,"Explore Life. Inspire All. Grow Humans
Dive into trending topics shaping the youth and millennials in Kenya.
How to Grow in Social Media
What is trending in Kenya?
What is the best podcast in Kenya?
What is the most upcoming channel in Kenya?
How to light up your videos.
How to have an interview. 
How to have a great conversation.
Celebrate African creativity with insightful conversations and debates.
Laughter, Love, and Life ‚Äì Kenyan Style
Kenya‚Äôs Favourite Podcast.
How to start a Youtube Channel.
African Content and Afrobeats
Laugh, learn, and connect with Kenya‚Äôs top podcast personalities.
Join the movement that‚Äôs redefining podcasts in Africa.
Watch, comment, and subscribe to Kenya‚Äôs fastest-growing podcast!
The Kenyan podcast that brings the culture straight to your ears.
Luo Culture, Turkana Culture, Kenyan Culture and African Culture.
Find inspiration in the struggles and triumphs of Kenyan youth.
How to be inspired.
How to mentor young Africans, Kenyans and young people.

",interview,2170,91073,89
28,UCEhTMgSdIFhdbrQWZDYYzxQ, THE EPHRAIM JUMA  SHOW. ,https://www.youtube.com/channel/UCEhTMgSdIFhdbrQWZDYYzxQ,TwdDGHfncQw,Presidents of Kenya since independence. Ephraim Juma,https://i.ytimg.com/vi/TwdDGHfncQw/mqdefault.jpg,2025-09-22T07:28:46Z,"

Welcome to The Ephraim JUMA Show ‚Äì your ultimate destination for bold, insightful, and unapologetic political content from Kenya, Africa, and across the globe.

From deep dives into African power dynamics to breaking global political news, we bring you current affairs that matter ‚Äì raw, real, and relevant. Join Ephraim Juma and guests as we decode politics, explore the rise of Africa, and hold leaders accountable.

üéß Weekly podcasts | üì∞ News updates | üí¨ Political talk shows
Whether it's the corridors of power in Nairobi, revolution in West Africa, or shifting alliances in global geopolitics ‚Äì we‚Äôve got it covered.

#EphraimJumaShow
#KenyaPolitics
#AfricanPolitics
#GlobalPolitics
#CurrentAffairs
#AfricaRising
#PoliticalNews
#LeadershipMatters
#PoliticsUnfiltered
#PoliticalAnalysis
#NewsUpdate
#Geopolitics
#AfricanLeaders
#KenyaNews
#AfricaSpeaks
#PowerAndPolitics
#SpeakTruthToPower
#PoliticalPodcasts
#YouthAndPolitics
#NewsYouCanTrust




",podcast,1090,142315,631
29,UCGfK7dA15EGUH3ly96wCrnw,The Naomi Talk show with Liz kinyua.,https://www.youtube.com/channel/UCGfK7dA15EGUH3ly96wCrnw,mhUR0i-IlW8,"A nurse saw through me and she sensed my plan to sell my child, she took time to talk me out of it.",https://i.ytimg.com/vi/mhUR0i-IlW8/mqdefault.jpg,2025-09-19T16:00:06Z,"ùóòùóæùòÇùó∂ùóΩ, ùóòùó±ùòÇùó∞ùóÆùòÅùó≤ & ùó∂ùóªùòÄùóΩùó∂ùóøùó≤.

Liz kinyua is a wife, mother and a mentor with a zeal to reach out to the young generation through ùóßùóµùó≤ ùó°ùóÆùóºùó∫ùó∂ ùóßùóÆùóπùó∏ ùòÄùóµùóºùòÑ and the mentorship programs that run online.

she's a voice in our society getting many invitations to speak even across the boarder's.

Thank you soo much for choosing to be part of this family, the Naomi talk show family, you are at the right place and at the right time.üëåüèΩ

 In every story we share you will be equipped, educated and inspired.All to the glory of God .",podcast,1450,129511,314
30,UCAIvsyWnvcftBlW3qlfxSLg,Cre8,https://www.youtube.com/channel/UCAIvsyWnvcftBlW3qlfxSLg,oNiCvJ3myx8,Darque's Unplanned Music Collab with Zakes Bantwini | The Chat  #podcast #afrohouse,https://i.ytimg.com/vi/oNiCvJ3myx8/mqdefault.jpg,2025-09-09T07:00:50Z,"Cre8 is more than just a platform‚Äîit's a movement dedicated to nurturing, promoting, and validating creative careers in Kenya. We believe creative work is a viable and rewarding career path, not just a hobby.

Our channel shines a spotlight on Kenya‚Äôs vibrant creative community through engaging and inspiring content:

The Cre8 Podcast, hosted by Cindi Muriuki, features in-depth interviews with well-known and influential Kenyan creatives in fields like content creation, music, acting, and more. Hear their stories, insights, and advice to inspire the next generation of creatives.

The Chat provides a dynamic space for creatives to showcase their new projects‚Äîbe it upcoming shows, albums, plays, or other creative endeavours. We make it easy for creatives to share their work on their own schedule.

Join us on this journey to celebrate the richness of Kenya's creative industry and empower creatives to connect, grow, and succeed.

This is #WhereCreativesConnect.
",interview,1800,88847,99
31,UCQHPCqzlLMq1wZSy2H7osPA,Unlock Your Soul Podcast With Anto Neosoul,https://www.youtube.com/channel/UCQHPCqzlLMq1wZSy2H7osPA,6XJKbLxxJ-4,JazzA Library October Update!,https://i.ytimg.com/vi/6XJKbLxxJ-4/mqdefault.jpg,2024-10-16T18:40:43Z,"This is where deep conversations spark soulful transformations.Hosted by multi-talented king of interviews join Anto Neosoul as he takes a deep dive into the soul and helps us unveil the beauty of life one conversation at a time. Get ready for Soulful conversations that touch your heart and lift your soul. This is our space where we embrace our journeys and celebrate our humanity by scratching beneath the surface to find what makes us human. It's time to find your groove and validate your experiences. It is time to feed your soul with meaningful, intentional conversations so tune in and turn up your soul's frequency. It's time to Unlock Your Soul with Anto Neosoul",interview,3190,27205,81
32,UCOdBdIQ7m6_RDzxkb9aZKwg,Truly Kenya,https://www.youtube.com/channel/UCOdBdIQ7m6_RDzxkb9aZKwg,JyEX4UI79Hc,"S2/EP18 Walter Mendez Fashion Designer to Beyonc√©, Jlo, Mariah Carey and many others",https://i.ytimg.com/vi/JyEX4UI79Hc/mqdefault.jpg,2023-12-06T20:21:48Z,"Hi, welcome to ""Truly Kenya"" Podcast Channel.

Kenya has been on a 2.5 year journey of FINALLY starting a podcast!  She is currently going through a divorce and navigating being newly single.  Kenya has a unique sarcastic and humorous outlook on life.  You can expect unfiltered unapologetic conversations on her personal life, relationships, sex and kids.  Although you won't solve any world issues listening to this show, you are guaranteed a good time.  Kenya enjoys nothing more than giving her 2 cents on life advice to strangers, so ""Ask Kenya Anything!""  She is talking to guests ranging anywhere from pop culture, entrepreneurs, alternative life style, authors, reality tv, basically anyone she finds interesting and of course she is asking all the questions, we really want to know the answers to - in a way only she can do it!

Thanks for visiting! Please subscribe and like to see me more on your newsfeed! ",podcast,1970,56147,31
33,UCypFIWz7374bTaI3CEqy29w,Anonymous podcast ,https://www.youtube.com/channel/UCypFIWz7374bTaI3CEqy29w,owmBDqs29EU,Let's talk football Ep 2 :Manchester got cooked : My  Predictions were right.,https://i.ytimg.com/vi/owmBDqs29EU/mqdefault.jpg,2025-09-17T16:45:07Z,"The unknownmous podcast is a safe space hosted by Eduuh and Artisto that is created on the basis of daily life experiences that are either personal or interconnected, with the aim of giving the listener/viewer a thought or two that will impact your lives while also making the hard days laughable. Eduuh is a fashion enthusiast (sneaker lover) while Artisto just as the name suggests is a self taught artist based in Nairobi. Join us as we make Kenya, Africa as a continent and the world more bearable and happy place.",podcast,668,188730,319
34,UC_wg2l_J7CMctgLuSL-MJQg,Nairobi talks podcast,https://www.youtube.com/channel/UC_wg2l_J7CMctgLuSL-MJQg,GPA071WpKi8,Truth behind Nairobi gossip club owner and close co-workers tumbili ü§£,https://i.ytimg.com/vi/GPA071WpKi8/mqdefault.jpg,2025-09-21T18:08:16Z,Exposing every hidden story üòÅ,podcast,701,100374,84
35,UCcKHgbIgC-Y6sudDHYqpVBA,Kenya News Live TV,https://www.youtube.com/channel/UCcKHgbIgC-Y6sudDHYqpVBA,p6aMTe17p-U,NIHESHIMU KAMA RAILA! ''ANGRY SPEAKER WETANGULA LECTURES LUHYA YOUNG LEADERS,https://i.ytimg.com/vi/p6aMTe17p-U/mqdefault.jpg,2025-09-19T18:59:22Z,"Welcome to Official YouTube Channel for Kenya News Live TV ‚úÖ the number One Online TV  in Kenya that brings you 24 hour Latest News as it happens.  Kenya News Live ‚Äì Your Trusted Source for Reliable, Timely, and In-Depth News coverage across Kenya and beyond. We bring you the latest in Breaking News, Politics, Current Affairs, Business, Culture and Human Interest Stories, with a focus on truth and timely News.
---
SUBSCRIBE Kenya News Live TVand turn on notifications to stay updated with daily news bulletins, special reports, and exclusive interviews from dedicated our team.
---
FOR BUSINESS
Email: washytvkenya@gmail.com
---
Kenya News Live TV‚Äì News That Matters
#KenyaNewsLive #KenyaNewsLiveTv #LatestNews #BreakingNews
",interview,603,143475,46
36,UCzVRrSMczs9sEHJbRKj1a7A,Peer Pressure,https://www.youtube.com/channel/UCzVRrSMczs9sEHJbRKj1a7A,tfIc0uRY53E,"Bylines, Blockbusters & The Cost of Creativity ft. Kui Mwai",https://i.ytimg.com/vi/tfIc0uRY53E/mqdefault.jpg,2025-09-19T08:48:06Z,"Peer Pressure is a ride-along series where influential voices open up about money, work, and life , all while cruising through the streets of Nairobi. 
From candid conversations to unexpected insights, this show is where unfiltered money talk meets the hustle of everyday life.",podcast,1030,37620,14
37,UCa3sWRfbUgfv8nTDlzlt9Cw,Maleda Podcast,https://www.youtube.com/channel/UCa3sWRfbUgfv8nTDlzlt9Cw,P1Rl0Gcsz0s,·ã®·àõ·ã≠·çã·âÖ ·àµ·àÖ·â∞·âµ / ·ä•·ãç·äê·â∞·äõ ·ã®·àµ·ã∞·âµ ·â≥·à™·ä≠ / ·àõ·àà·ã≥ ·çñ·ãµ·ä´·àµ·âµ /Maleda Podcast,https://i.ytimg.com/vi/P1Rl0Gcsz0s/mqdefault.jpg,2025-08-08T23:00:33Z,"To the resilient and courageous souls of Ethiopian and Eritrean communities in Nairobi and beyond,
To those who have journeyed far, crossing borders and navigating challenges in search of peace, hope, and a place to belong,
To the refugees whose voices echo with stories of resilience, whose experiences weave a rich tapestry of culture, identity, and determination,
And to all those bridging the gap between worlds, blending traditions, and fostering understanding across diverse backgrounds.

This podcast is for you, to honor your journeys, amplify your stories, and create a space where your voices are heard, cherished, and celebrated. May Maleda be a beacon of connection, empathy, and inspiration for all.
",podcast,1220,23373,52
38,UCdvkru5YIysg1Jqmd2yUA0Q,Adulting In Generations Podcast,https://www.youtube.com/channel/UCdvkru5YIysg1Jqmd2yUA0Q,a_cqeZXC6xE,HEY my Gs ‚ù§Ô∏è,https://i.ytimg.com/vi/a_cqeZXC6xE/mqdefault.jpg,2025-04-24T14:55:04Z,"Adulting in Generations (Kenya‚Äôs Top Intergenerational Podcast)

Adulting in Generations is a Kenyan podcast that bridges the gap between different age groups through real conversations on career, finances, relationships, culture, and mental health. Hosted by Nicole Gachera and managed by Bryan Mabbri, we tackle adulting challenges in Kenya with fresh insights from diverse perspectives.

üéôÔ∏è New episodes every Friday at 10:00 AM (EAT)
üìç Watch on YouTube ‚Äì Kenya‚Äôs Hub for Intergenerational Talks

Join the conversation, learn from other generations, and grow with us! Don‚Äôt forget to subscribe, like, and share for the latest updates.

#KenyanPodcast #AdultingInKenya #GenerationalTalksKE #CareerKenya #FinancialLiteracyKE #KenyaYouTube
",podcast,847,46006,225
39,UCNo-ex-Lvy546IHafbCO_kw,Nairobi Sisterhood,https://www.youtube.com/channel/UCNo-ex-Lvy546IHafbCO_kw,1z7ewmwAQp4,Things we no longer believe in | Relationship Edition - Sn 3 | Ep 6,https://i.ytimg.com/vi/1z7ewmwAQp4/mqdefault.jpg,2024-11-15T19:43:45Z,"We are two ladies in our mid-20s talking about life and taking you on our journey. Enjoy, subscribe and don't forget to share with your friends :)

If you like your podcast in audio form here's our spotify - https://podcasters.spotify.com/pod/show/nairobi-sisterhood
You can also find us on all other audio platforms.

Wanna work with us? Shoot us an email on thenairobisisterhood@gmail.com
",podcast,790,46836,72
40,UCAGccO83wjfgjrLL-FoPNUA,Two Becoming One Podcast ,https://www.youtube.com/channel/UCAGccO83wjfgjrLL-FoPNUA,_vkslyTrdYE,Are You Losing Yourself in This Relationship?,https://i.ytimg.com/vi/_vkslyTrdYE/mqdefault.jpg,2025-09-18T16:09:12Z,"A raw, real podcast about what it truly takes to grow in love, marriage, and purpose, Hosted by Christian & Sharon Kimaru.

We‚Äôre figuring it out ‚Äî just like you ‚Äî and sharing the lessons, mistakes, laughs, and everything in between. From the awkward conversations to the ‚Äúaha‚Äù moments, this is a space for couples (and the curious) who want to build something real.

No filters. No fluff. Just honest conversations about relationships, growth, and what becoming one actually looks like.

üéß New episodes every week
üìçFrom Nairobi, for the world
üí¨ Subscribe & grow with us

Two Becoming One ‚Äî Real love. Real talk. Real growth.


",podcast,676,19439,22
41,UCpBkES9MwTkHys6m2ALHsjg,The Kisumu Street Talk Show,https://www.youtube.com/channel/UCpBkES9MwTkHys6m2ALHsjg,hGm1s_L1RDg,"""EDUCATION IS FOR ALL""-   MARY ROYAL SCHOOL IN OBUNGA SLUMS.",https://i.ytimg.com/vi/hGm1s_L1RDg/mqdefault.jpg,2023-02-06T19:01:40Z,Online Talk Show,podcast,763,18022,40
42,UCnq4TCoyVifDsKCouqop-1A,My Side of the Story Podcast ,https://www.youtube.com/channel/UCnq4TCoyVifDsKCouqop-1A,AHStvgu_PRI,"Our guest feared for her life, thats why she made the choice of not reporting her abuser",https://i.ytimg.com/vi/AHStvgu_PRI/mqdefault.jpg,2025-09-16T07:40:43Z,"We tell human centred storytelling, with real life experiences. Such stories are meant to highlight struggles, resilience, and transformation within african communities and beyond, creating social impact narratives.

#mysideofthestory #storycast #humanstories #reallifestory 
",podcast,506,28394,47
43,UCUEeF2Ra03--4DwXrxEwe7A,The We Crew Podcast,https://www.youtube.com/channel/UCUEeF2Ra03--4DwXrxEwe7A,dGq9BYrh1as,Episode 13: Kitale Film Week Uncovered: Peter Pages on Building Kenya‚Äôs Boldest Festival,https://i.ytimg.com/vi/dGq9BYrh1as/mqdefault.jpg,2025-04-19T14:24:22Z,"The FIRST and ONLY podcast in Kenya that brings the world of FILM to your ears. 

We celebrate the talents, the dedication, and the stories of the FILMMAKERS & CREW ‚Äì both local and international
It‚Äôs a space built to connect, inspire, and empower those who shape the art we love.  

If you‚Äôre a crew and want to share your story, we‚Äôd love to hear from you. Send us your profile and your work to: thewecrewpod@gmail.com.",podcast,799,11781,14
44,UCAXr6AS1E9VGjXc3B4_Y1IQ,NairoBEERns,https://www.youtube.com/channel/UCAXr6AS1E9VGjXc3B4_Y1IQ,WK6Jz0RVSgw,Ultimate Push Pull Legs Routine for Max Gains [FULL GUIDE],https://i.ytimg.com/vi/WK6Jz0RVSgw/mqdefault.jpg,2024-10-31T08:30:17Z,"NairoBEERns Podcast - Kish and Mwas are Kenyan YouTube Podcasters who tackle a variety of topics and issues in our society. These topics range from Politics, Relationships, Work, and many more, mostly affecting the youth.
Here, We Talk because we can, and we talk because we want to!!

",podcast,563,23253,158
45,UCV-BcE3H626y-6QMCyFX4Nw,Tangawizi Podcast,https://www.youtube.com/channel/UCV-BcE3H626y-6QMCyFX4Nw,rAeykXhM_Ok,"This is Tangawizi at 1 year.To our guests & our community, thank you for the spice.",https://i.ytimg.com/vi/rAeykXhM_Ok/mqdefault.jpg,2025-09-10T14:08:30Z,"Engaging young Africans in meaningful conversations on identity, equity, and self-efficacy. All voices are welcome.",podcast,602,14548,27
46,UCLwD7aMSjispS8JOy7FQB8w,SISIBO Podcast ,https://www.youtube.com/channel/UCLwD7aMSjispS8JOy7FQB8w,naOVEEChKpk,sisibo podcast episode 28,https://i.ytimg.com/vi/naOVEEChKpk/mqdefault.jpg,2025-09-17T03:36:56Z,"Conferred City status on the 15th day of August 2024, Eldoret is located in western Kenya, south of Cherangany Hills.  The town came into being in the year 1910 with the construction of a post office on a site, which was known to the white settlers as Farm 64, 64 or Sisibo. The locals at that time referred to the town as Farm 64 or Sisibo because, the town of Eldoret was 64 miles away from the newly established Uganda Railway railhead, located at Kibigori.

Bethel Studios KE prides in documenting and sharing the rich life and history of Eldoret ranging from politics, healthcare, education, art, business, farming, athletics and many more aspects of the great Eldoret City. 

Please write to us on bethelstudioske@gmail.com or call 0723433576 for a feature in this podcast.",podcast,657,10727,28
47,UCM1eHYPv9-OdjmMiridAi-Q,BAADA YA SUMMIT PODCAST,https://www.youtube.com/channel/UCM1eHYPv9-OdjmMiridAi-Q,9RMVWoIQHh8,EP. 19 - Rose Kimondo (Hiker),https://i.ytimg.com/vi/9RMVWoIQHh8/mqdefault.jpg,2024-03-07T12:31:52Z,"Hiking & Mountaineering Podcast.
Host: Kiprono Leting @kipronoleting

""Baada Ya Summit"" - After The Summit.
",podcast,450,21860,19
48,UC0Zhxf3TeHmWMS431pq2K2Q,D kenya,https://www.youtube.com/channel/UC0Zhxf3TeHmWMS431pq2K2Q,Ox1Ra2p4DtE,CHOMBO by D KENYA,https://i.ytimg.com/vi/Ox1Ra2p4DtE/mqdefault.jpg,2022-01-05T07:42:51Z,"Dishon Okwami Asolo (born 16th August 1995) popularly known by stage name D kenya, is Kenyan upcoming artist doing afro pop type of music raised from Mathare area of Nairobi city Kenya.for live performance and TV's ,Radios station interviews call me +254702666182
",interview,614,10674,7
49,UC1opVgOIPpOiHcZu1kG2jFg,The Real 20-Somethings Podcast,https://www.youtube.com/channel/UC1opVgOIPpOiHcZu1kG2jFg,uMHiYLfDGRk,Vibes and Inshallah | The Real 20-Somethings Podcast Ep 20,https://i.ytimg.com/vi/uMHiYLfDGRk/mqdefault.jpg,2025-09-16T16:00:06Z,"üéôÔ∏è The Real 20-Somethings is your go-to podcast for real talk on life, love, and hustle as a young adult in Kenya. We bring you relatable stories and authentic conversations with a Kenyan twist, covering everything from side hustles and relationships to mental health and career growth. Tune in every week for fresh episodes, and join the conversation by DMing us or leaving a comment to share your story or suggest a topic!",podcast,510,9919,36
50,UC6ZWiMlMB-YRonMmhEvh-LA,Hustle Talk Show Kenya By Ezra B. Obong'o,https://www.youtube.com/channel/UC6ZWiMlMB-YRonMmhEvh-LA,CU0zccnF5MM,Friendly Fire Exchange between President Ruto & President Samia at the AGRF 2023 in Dar es Salaam,https://i.ytimg.com/vi/CU0zccnF5MM/mqdefault.jpg,2023-09-08T07:41:16Z,"The Hustle Talk Show Kenya is a weekly business show committed to profiling Young Africans in business. From Agriculture, Entertainment, Manufacturing, Tech etc. Our business is not only telling these stories but also marketing these businesses all over Africa and to the world.

Contact us
Email: hustletalkshowkenya@gmail.com

Phone: +254 715 714219

New video Every week! üé¨",podcast,342,18794,6
51,UCAl8AadAoOYAigSx_jbD48A,Jafar Talk Show,https://www.youtube.com/channel/UCAl8AadAoOYAigSx_jbD48A,LhVwvHTsWmU,FULL SPEECH On Covid 19 Pandemic ||JAFAR TALK SHOW ||Campus Chronicles,https://i.ytimg.com/vi/LhVwvHTsWmU/mqdefault.jpg,2023-07-29T08:00:12Z,"JAFAR ABDI SHABANE is my official name. i pursued Bachelor of Science in Agricultural Economics and Resource Management at University of Kabianga-Kenya.
Jafar Talk Show is professional personal blog that recognizes, appreciates and believes in the future of marginalized pastoral comunities living in the ASAL regions of Kenya and Africa. My Motto is ''EVERYBODY CAN FARM' AND FIGHTING AGAINST FOOD HUNGER IS EVERYONE RESPONSIBILITY''
follow me on Facebook as - Jafar Abdi
follow me on instagram as - Jafartalkshow009
follow me on twitter -jafar Abdi AgriEconomist
follow me on Tiktok- Jafar Talk Show Tv

call or watsap +254728839215
or email :jaafarabdi1997@gmail.com",podcast,530,6275,35
52,UCt3O9c9h1HvVWYXMPHmmdTg,013 PODCAST KENYA,https://www.youtube.com/channel/UCt3O9c9h1HvVWYXMPHmmdTg,sPC4HNbRZ1U,013 Podcast Episode 17  FAKE RELATIONSHIPS,https://i.ytimg.com/vi/sPC4HNbRZ1U/mqdefault.jpg,2025-04-23T17:09:43Z,interact with us and know more,podcast,357,6432,38
53,UCdTl3OaWU7bQZdMj9a6Kp5Q,Tuff Podcast Kenya,https://www.youtube.com/channel/UCdTl3OaWU7bQZdMj9a6Kp5Q,4Yh2cwQ5grA,#dreamville #loveyourz #therapy,https://i.ytimg.com/vi/4Yh2cwQ5grA/mqdefault.jpg,2025-09-09T03:31:00Z,,podcast,265,10735,79
54,UCaBsJ49LoB2d_UeiVJ3b9CQ,Kush Moments Podcast,https://www.youtube.com/channel/UCaBsJ49LoB2d_UeiVJ3b9CQ,iRhgNsBqQhM,#Zuchu #Bongo #bongoflava #EastAfricanMusic #YouTubeRecords #CreativeProcess #Songwriting #Tanzania,https://i.ytimg.com/vi/iRhgNsBqQhM/mqdefault.jpg,2025-07-24T11:55:19Z,"""Welcome to Kush Moments, your go-to podcast for the latest in events, entertainment, and unforgettable moments. Join us as we dive into the hottest happenings, behind-the-scenes stories, and everything that makes life entertaining. Chill, vibe, and stay updated with us every week!""",podcast,180,22481,151
55,UCldQfsiWa5q_hYDvfRTi2vA,EAST SIDE PODCAST ,https://www.youtube.com/channel/UCldQfsiWa5q_hYDvfRTi2vA,Bn22yiXHJn4,Tricked into a War Zone - The Plight of Africans in Russia's Military.,https://i.ytimg.com/vi/Bn22yiXHJn4/mqdefault.jpg,2025-09-22T09:30:13Z,"East Side is a Kenyan podcast based in Qatar where we dive deep into the headlines that shape our world. From geopolitical shifts and climate challenges to economic trends and societal polarization, EAST SIDE PODCAST offers unbiased analysis and critical perspectives on the most pressing current issues. We break down complex topics, explore underlying causes, and examine potential solutions to help you truly understand what's happening globally. Subscribe for clarity in a chaotic world.

FEEL AT HOME & YOU ARE ALWAYS WELCOME!
 ",podcast,107,22798,200
56,UCEioZNJoAjcycW-0I-eMnUg,Point 254 Podcast,https://www.youtube.com/channel/UCEioZNJoAjcycW-0I-eMnUg,_qealPHwPJc,How do we create spaces where persons with disability have equitable access to services?,https://i.ytimg.com/vi/_qealPHwPJc/mqdefault.jpg,2024-12-24T09:16:44Z,"Candid conversations with various representatives of the US Mission in Kenya.
Join us as we have insightful discussions, tackling issues that affect Kenyans in relation to the USA, with a high-level panel of guests from the US Ambassador to Kenya, AFRICOM's Commander, the Consular Head, as well as representatives of other agencies. 


",podcast,163,22610,16
57,UCTI2GmaI835bb4nRFtaSq9g,Chebichi Connect,https://www.youtube.com/channel/UCTI2GmaI835bb4nRFtaSq9g,BkezkKf-hbE,Beautiful Hydrangea ‚ù§Ô∏è,https://i.ytimg.com/vi/BkezkKf-hbE/mqdefault.jpg,2025-09-13T23:08:08Z,"Join us as we explore the vibrant lives of Kenyans living in the U.S., showcasing inspiring success stories, beautiful places, and the unique journeys of the Kenyan diaspora. From insightful interviews with accomplished individuals to stunning road trips across the USA, our channel brings you a fresh perspective on what it means to be a Kenyan abroad.

Whether you're looking for inspiring tales of entrepreneurship, travel inspiration, or simply want to connect with the Kenyan community, Kenya USA Experience is your go-to space for all things related to the Kenyan-American lifestyle. 

Subscribe and be a part of our growing community, where we share cultural stories, valuable tips, and the best of both Kenya and the U.S.!
",interview,148,17893,34
58,UCryoF-7-KqLxbbJO5nAEZJQ,The Nairobi Podcast,https://www.youtube.com/channel/UCryoF-7-KqLxbbJO5nAEZJQ,Bd9gh1VAnWI,Have you ever felt overwhelmed by grief?,https://i.ytimg.com/vi/Bd9gh1VAnWI/mqdefault.jpg,2025-02-25T11:03:27Z,"The Nairobi Podcast is a vibrant space where young, creative minds come together to share bold ideas, unfiltered humor, and fresh perspectives. Through lively conversations, jokes, and out-of-the-box thinking, we celebrate the joy of creativity and the power of laughter. Tune in for a mix of inspiration, fun, and unforgettable moments‚Äîbecause life‚Äôs too short to think inside the box!",podcast,141,21265,110
59,UCKF4RCmR4WQoVzzvjG71k5Q,The What Even Podcast,https://www.youtube.com/channel/UCKF4RCmR4WQoVzzvjG71k5Q,R-nWjv5VlPE,The 18 year old who tried to fix Africas JOB CRISIS,https://i.ytimg.com/vi/R-nWjv5VlPE/mqdefault.jpg,2025-09-20T19:29:10Z,"Welcome to The Whatever Podcast! üéôÔ∏è

We‚Äôre your go-to podcast for bold conversations, trending topics, and authentic stories straight out of Nairobi, Kenya! 
Hosted by Charles and Pablo, we explore everything from pop culture and viral internet topics to local insights.

What You Can Expect:
‚Ä¢	Engaging interviews with viral creators, influencers, and thought leaders
‚Ä¢	Deep dives into Kenyan culture and lifestyle
‚Ä¢	Fun, laughter, and the occasional spicy challenge

Why Watch Us?
We‚Äôre not just a podcast‚Äîwe‚Äôre a platform celebrating Nairobi‚Äôs vibrant culture and the voices shaping tomorrow. Whether you‚Äôre here for the laughs, the stories, or the insights, you‚Äôll always find something to keep you engaged.

Subscribe to join the journey!
Share your thoughts in the comments we‚Äôd love to hear from you !
Turn on notifications so you never miss an episode.

#TheWhateverPodcast #KenyanCulture #NairobiStories #ContentCreation #BoldConversations
",interview,113,19156,57
60,UCYcynN2gZOjVEUrQEissJEw,The Kenyan Life Podcast,https://www.youtube.com/channel/UCYcynN2gZOjVEUrQEissJEw,D9MAzVWc2OI,The Creatives' Dilemma: Freelancing or Formal Employment?  | TKLP Season 1: Episode 15,https://i.ytimg.com/vi/D9MAzVWc2OI/mqdefault.jpg,2025-09-21T16:00:16Z,,podcast,229,2925,15
61,UCElsoUs_l5pW3mIy99STaLg,OUTSOURCE TALK SHOW,https://www.youtube.com/channel/UCElsoUs_l5pW3mIy99STaLg,CSRIBJ5-7Kw,Behind the scenes: Najib Balala Speaks to Bill Otieno,https://i.ytimg.com/vi/CSRIBJ5-7Kw/mqdefault.jpg,2021-03-09T23:38:19Z,"#Outsourcetalk is a reality tv platform where bold topics are brought to discussion hosted by Bill Otieno .
Outsource Talk Show is a product of Pyramedia Tv Kenya .",podcast,140,12974,35
62,UCPXjfklySf9QxPD4NI-VSeg,Tech Magazine Kenya,https://www.youtube.com/channel/UCPXjfklySf9QxPD4NI-VSeg,IRE9NmhveCQ,TECH MAGAZINE SHOW EP 7 -  MOTOR-TECH,https://i.ytimg.com/vi/IRE9NmhveCQ/mqdefault.jpg,2021-11-24T19:14:19Z,"Kenya's Premier Tech & Gadget Magazine. We bring you the latest in technology news from Kenya and the World. 
Our segments:
Tech News
Tech Talk
Motor Tech
",interview,177,2741,13
63,UCFMma0gjV8KxytlX8Pijn7g,GENZ talk show  Kenya ,https://www.youtube.com/channel/UCFMma0gjV8KxytlX8Pijn7g,9yJfuQvYVkE,Sunday manenoz,https://i.ytimg.com/vi/9yJfuQvYVkE/mqdefault.jpg,2025-08-18T10:31:07Z,bringing the best ,podcast,111,6617,23
64,UCyr9a20DTEi4b0Z8f3pB07Q,Kapital wthK,https://www.youtube.com/channel/UCyr9a20DTEi4b0Z8f3pB07Q,DK1gSGGZ580,"In high school, suspensions were my specialtyüòÇ",https://i.ytimg.com/vi/DK1gSGGZ580/mqdefault.jpg,2024-10-31T13:00:06Z,"A production crew in short films, comedy, drama, documentaries and podcast.",podcast,150,2524,14
65,UCpkWCNM_dwuxAScYCbrYGWA,The Tufunzeni Podcast,https://www.youtube.com/channel/UCpkWCNM_dwuxAScYCbrYGWA,xOW8bXSFbQ0,How to Hack Classroom Management in the 21st Century,https://i.ytimg.com/vi/xOW8bXSFbQ0/mqdefault.jpg,2025-09-16T09:00:06Z,"Welcome to The Tufunzeni Podcast, hosted by Kenyan educator Roseline Ogaye! ""Tufunzeni"" means ""let's teach each other"" in Kiswahili, and that's exactly what we're here to do. This channel is your go-to platform for honest, insightful, and empowering conversations about education in Kenya. From innovative teaching strategies and curriculum deep-dives to student well-being and the evolving role of teachers, we're tackling the topics that matter most to you. Join Roseline and a vibrant community of educators as we share experiences, spark new ideas, and collectively shape the future of learning in Kenya. Subscribe and let's teach each other!
",podcast,170,1637,4
66,UC_Z62_Gelo8eoWVAY-Tvlwg,KENYAN PODCAST SHOW,https://www.youtube.com/channel/UC_Z62_Gelo8eoWVAY-Tvlwg,1xUMg_ElChQ,The most illegal imagination ! #motivation #inspiration #levelup,https://i.ytimg.com/vi/1xUMg_ElChQ/mqdefault.jpg,2025-08-15T09:33:06Z,"
Welcome to the Kenyan Show, where we dive into the weird and wacky events of daily society in a hilarious yet educational way. Join us for our podcast shows and video reviews as we entertain you with our unique take on the world around us. Don't miss out on the laughs and insights - subscribe now! #siojabashow #podcast #kenya #glegacycreatives. Subscribe for more entertainment and education! #subscribe #newvideo
",podcast,488,221,3
67,UCCU6P2ZLubIq5iHWml3wOVA,MaYouth Kenya (Podcast),https://www.youtube.com/channel/UCCU6P2ZLubIq5iHWml3wOVA,bJRApsIJKow,MAYOUTH PODCAST #9 IDENTITY,https://i.ytimg.com/vi/bJRApsIJKow/mqdefault.jpg,2023-02-26T15:30:10Z,"The youth are the future, and they are ultimately defined by the things that they say and do as young people. There are many words to describe youth culture based on their behavior, style, belief, interest, and even vocabulary. We, a group of talented and great-minded individual, have come together to share our experiences we are having as YOUTHS. We are here for YOU! ",podcast,147,2109,11
68,UCHm4c8oasU7YWm7SRK4Jmwg,The Kenyan Agenda.,https://www.youtube.com/channel/UCHm4c8oasU7YWm7SRK4Jmwg,uXrYHyqJMIo,"Kiaraho & Kiunjuri Lectured by Angry Locals in Olkalou , Nyandarua county!",https://i.ytimg.com/vi/uXrYHyqJMIo/mqdefault.jpg,2025-09-12T14:41:07Z,"Welcome to The Kenyan Agenda ‚Äì your go-to source for in-depth analysis, discussions, and insights on Kenyan politics and governance. From election updates and policy breakdowns to interviews with key political figures, we‚Äôre here to keep you informed and engaged with the issues that matter most to Kenya.

Our mission is to provide balanced, factual, and thought-provoking content that empowers citizens to understand and participate in the political process. Whether you‚Äôre a political enthusiast, a student of governance, or simply a concerned citizen, The Kenyan Agenda is your platform for staying connected to the heartbeat of Kenyan politics.

Subscribe now to join the conversation and stay updated on the latest developments shaping Kenya‚Äôs future. Together, let‚Äôs explore the policies, leaders, and events driving The Kenyan Agenda.",interview,67,5449,46
69,UCXfMr41s8MSPLczAimB-c7w,Young Mindset Podcast,https://www.youtube.com/channel/UCXfMr41s8MSPLczAimB-c7w,k0uONVA994g,PRAYER COMMITTEE FOR POLICE DEPARTING TO HAITI||THE TRANSPORT SECTOR MENACE,https://i.ytimg.com/vi/k0uONVA994g/mqdefault.jpg,2024-04-04T15:26:05Z,"Welcome to Young Mindset, the dynamic podcast that fearlessly navigates the intricate realms of Kenyan politics and culture. Immerse yourself in our vibrant discussions that offer not just insights but actionable solutions for a better society. With a fresh youth perspective, we dissect political complexities, celebrate cultural richness, and actively engage our community in building a brighter, more inclusive future for Kenya. 

Subscribe now and join the movement towards informed citizenship, cultural appreciation, and tangible positive change. Young Mindset is not just a podcast; it's a catalyst for transforming ideas into impactful reality

For Collabs: youngmindsetpodcast@gmail.com
",podcast,113,1917,10
70,UCxrnuPpbDqF-xfhxETgOXZw,Galaxy Podcast Kenya,https://www.youtube.com/channel/UCxrnuPpbDqF-xfhxETgOXZw,966p3SLjzN0,GALAXY PODCAST SN1 EP 9 ( VISUAL ARTISTRY  &  MAKE UP ),https://i.ytimg.com/vi/966p3SLjzN0/mqdefault.jpg,2020-03-04T15:54:01Z,,podcast,103,1763,10
71,UCnx1O2QvswKgKJNJ6ilR1Wg,MBOKA PODCAST KENYA,https://www.youtube.com/channel/UCnx1O2QvswKgKJNJ6ilR1Wg,a8uvkFbGsaE,Lucy Code x Pablo (Mboka Podcast Ent) Lifestyle Simple Official Visualiser 2025,https://i.ytimg.com/vi/a8uvkFbGsaE/mqdefault.jpg,2025-09-01T03:52:07Z,"Welcome to the official YouTube channel for ESYD MUSIC EMPIRE! Immerse yourself in the sounds of kenyan dancehall, drill, trap,worship you mention it..Here you'll find it interesting we'll share, e.g., official music videos, live performances, behind-the-scenes glimpses, lyric videos]. Get ready to [mention the feeling your music evokes, e.g., dance, relax, feel inspired]. Subscribe and stay tuned for new music!",podcast,49,6951,53
72,UCiYiTatSZMKXI7LJVRs5IqQ,The Ultimate Showdown Ke.,https://www.youtube.com/channel/UCiYiTatSZMKXI7LJVRs5IqQ,ewa9kNBJ-XU,Liar Liar üå∂Ô∏è Who‚Äôs Got the Hottest Chilli in Their Mouth?@TheUltimateShowdownKe  #gameshow #funny,https://i.ytimg.com/vi/ewa9kNBJ-XU/mqdefault.jpg,2025-07-31T07:30:16Z,"Welcome to The Ultimate Showdown ‚Äì Nairobi‚Äôs most epic game show and your new favorite channel for challenges, comedy, and wild gaming face-offs!

 From Nairobi, Kenya to the world, we bring you:
‚Ä¢	Hilarious reaction challenges and viral games
‚Ä¢	Versus battles that test friendships and reflexes
‚Ä¢	Raw reviews and real talk with a Kenyan twist
‚Ä¢	Behind-the-scenes moments and unscripted fun

üëÄ Expect bold personalities, unfiltered laughter, and competitive chaos ‚Äî all wrapped in the energy of YouTube Kenya.

üìç Whether you're into Kenyan content creators, game show entertainment, or just great vibes, this channel brings gaming and culture to the front seat.

üìÖ New episodes drop weekly ‚Äî Join the squad and be part of Nairobi‚Äôs YouTube creator scene ‚Äî don‚Äôt forget to subscribe, like, and hit that üîî notification bell so you never miss a showdown!

#kenyanyoutubers  #gameshow #funchallenge #ultimateshowdownke  #funnychallenges  #youtubekenya 

",interview,65,3410,16
73,UCe4d-sGWyQKrfyPUn19yfZg,GRAND TV KENYA,https://www.youtube.com/channel/UCe4d-sGWyQKrfyPUn19yfZg,f4dmGbHULPs,BEFF KATI YA @Octopizzo NA @kingkaligraphii9320,https://i.ytimg.com/vi/f4dmGbHULPs/mqdefault.jpg,2025-09-18T19:42:58Z,"GRAND TV KENYA IS  Kenyan media platform, primarily operating as a YouTube channel  ,Facebook Page ,Tiktok ,Twitter, that focuses on delivering news, entertainment, and cultural content. It covers a wide range
 topics including local and international news, celebrity gossip, lifestyle, and human interest stories, often with a humorous or engaging twist. The channel is known for its video content, which includes interviews, skits, and commentary, appealing largely to a Kenyan and  AFRICA  audience. .Thanks for subscribing and feel at home.
SHARE AND SUBSCRIBE!!
",interview,84,1571,31
74,UCf3tfnXNENhHnxXI4k1iZZA,iO Kenya Podcast,https://www.youtube.com/channel/UCf3tfnXNENhHnxXI4k1iZZA,Bfo9ae3zdK0,"Episode 3, Moses Kemibaro, Dotsavvy Africa",https://i.ytimg.com/vi/Bfo9ae3zdK0/mqdefault.jpg,2023-06-29T11:40:32Z,,podcast,79,1979,5
75,UCG4alNwXXPfiJzOfYv0oe2A,NOW WHAT? Kenyan Podcast ,https://www.youtube.com/channel/UCG4alNwXXPfiJzOfYv0oe2A,tssU76fyBZQ,They Said ‚ÄòCongratulations‚Äô‚Ä¶ But Forgot the Salary,https://i.ytimg.com/vi/tssU76fyBZQ/mqdefault.jpg,2025-09-19T19:36:07Z,"Where strengthüí™, madness‚úä and greatnessü§ì meet

https://www.tiktok.com/@now.what.podcast?_t=ZM-8xGzmr7ndVV&_r=1



For the moments that break you, and the ones that build you...""Now What?""",podcast,79,1385,12
76,UC_JXNZ74vEqZere1sAkiicA,The Kenyan podcast,https://www.youtube.com/channel/UC_JXNZ74vEqZere1sAkiicA,BN27yDaRrYg,THE KENYAN PODCAST Live!,https://i.ytimg.com/vi/BN27yDaRrYg/mqdefault.jpg,2024-07-06T01:33:21Z,"#1 Kenyan podcast discussing trending & topical matters in entertainment, sports, youth affairs, music, arts, tech & business. ",podcast,140,540,21
77,UCxuG9NHAO1PG_vN_A5n1JJA,kwenda majuu podcast,https://www.youtube.com/channel/UCxuG9NHAO1PG_vN_A5n1JJA,B0YQ-QAObcg,Being a Kenyan in Canada,https://i.ytimg.com/vi/B0YQ-QAObcg/mqdefault.jpg,2022-12-07T07:13:51Z,"The Kwenda Majuu podcast is a deep dive into the experience of immigrating from a Kenyan perspective. We share detailed, first hand experiences about the process of moving to Canada and navigating life abroad, and we contrast this with the perspective of a Kenyan who has not yet had the opportunity to leave Kenya and live abroad.

Topics we will be covering in Season 1 include:
1. The immigration process
2. Working abroad
3. Studying abroad
4. How money works
5. Experiences with racism
",podcast,60,2830,36
78,UC3mHh-WPSt_XVdwDn9yBlgw,I Really Hoop Podcast,https://www.youtube.com/channel/UC3mHh-WPSt_XVdwDn9yBlgw,qj4ymdGbYMs,"NBA Gambling, New Face of the NBA, 3-Point Shooting, Kenyan Basketball playoffs + More | Ep. 12",https://i.ytimg.com/vi/qj4ymdGbYMs/mqdefault.jpg,2025-09-20T07:00:06Z,"An exciting Basketball Podcast based in Nairobi, Kenya. We discuss Kenyan basketball, the NBA, the BAL, and World Basketball in general.",podcast,86,840,13
79,UC9SnsF4x-VJgByNSRLp7nBQ,The High Talk Kenya,https://www.youtube.com/channel/UC9SnsF4x-VJgByNSRLp7nBQ,IrlXhGmhWVc,"Episode 1 : Reasons, Effects & Solutions of not being outspoken in a relationship.",https://i.ytimg.com/vi/IrlXhGmhWVc/mqdefault.jpg,2022-04-25T10:08:13Z,"The High Talk is a vodcast consisting of different episodes that are meant to entertain and educate our viewers. Our discussions will be revolving around Relationships, Friendships, Parenting and the use of Drugs among the teenagers and youths. Our viewers views, comments and suggestions are highly needed and appreciated.",interview,104,584,3
80,UC1KqXRTMzZEWqrggZHD0Y0Q,üéôKENYAN PODCASTSüéô,https://www.youtube.com/channel/UC1KqXRTMzZEWqrggZHD0Y0Q,stnSFNgZAow,#stevosimpleboy Talks About #hairstyle #kenya #kenyacomedy #podcasts #funny #mombasa #nairobi #fyp,https://i.ytimg.com/vi/stnSFNgZAow/mqdefault.jpg,2024-11-08T08:14:10Z,"Welcome into good vibes with KENYAN PODCASTS. A place for Groovy tunes, chill chats, and Positive Vibes ~ Your weekly doze to a better mood. Tune in and vibe with us. 
Subscribe For More",podcast,42,2837,3
81,UCR3T4osWyJ6Jhkz6w5EeEKg,Kenya Trends Podcast,https://www.youtube.com/channel/UCR3T4osWyJ6Jhkz6w5EeEKg,RRmch8nZCEk,Opposition Hawana akili,https://i.ytimg.com/vi/RRmch8nZCEk/mqdefault.jpg,2025-09-12T08:54:56Z,"Welcome to Kenya Trends Podcast‚Äì Kenya‚Äôs ultimate hub for youth trends, TikTok vibes, viral content, and breaking news. If it‚Äôs trending in Kenya, you‚Äôll find it here first. From viral TikTok challenges, celebrity drama, political twists, campus life, lifestyle, gossip, and street interviews, we bring you the real stories that Gen Z and Millennials in Kenya care about most.

At Imboko TV, we capture what‚Äôs moving the culture. We analyze TikTok Kenya trends, react to viral videos, highlight the latest news on Kenyan celebrities, and amplify the voice of Kenyan youth on politics, entertainment, and lifestyle. Whether it‚Äôs what‚Äôs buzzing on TikTok Kenya, the hottest celebrity gossip, or what Nairobi youth are saying on the streets, we keep you connected, informed, and entertained.

If you‚Äôre a Kenyan youth looking for trending conversations, fresh entertainment, and unfiltered street vibes, this is your number one home. Subscribe now to Imboko TV and never miss what‚Äôs trending in Kenya!
",interview,22,6108,35
82,UCojbm7CcNaT8QKImWVISTDA,PRINCENOEL_TRENDS,https://www.youtube.com/channel/UCojbm7CcNaT8QKImWVISTDA,mKPp5EQBGio,Africa‚Äôs Most Impressive City Revealed!,https://i.ytimg.com/vi/mKPp5EQBGio/mqdefault.jpg,2025-08-03T11:01:15Z,"üé• Welcome to Prince Noel Trends ‚Äì Where Trends Begin! üî•
Your home for viral insights, digital income hacks, and the hottest trends in Kenya and beyond.

üí° What to Expect:
üìà Forex & Binary Options Trading Strategies

üíª Freelancing Tips & Online Side Hustles in Kenya

üì± Gadget Reviews, Tech Tutorials & AI Tools

üß† Motivation, Mindset & Real Talk for Hustlers

üåç Kenyan Lifestyle Content with a Global Perspective

üëë Join a growing community of trendsetters who value authentic content, practical knowledge, and creative freedom.


üîó Follow us on TikTok for exclusive clips and trend drops: @Princenoeltrends
#PrinceNoelTrends #makemoneyonline  #forexkenya  #binaryoptions    #kenyanyoutuber  #techtrends  #FreelanceHustle #SideHustlesKenya #aiforcreators  #financialfreedom  #tiktokkenya  #gadgetreviews  #kenyatrends  #digitalhustle  #onlineincometips 
",interview,59,679,22
83,UC_Xg1bgPH1hPHTvnhwOe2pg,Kenya News Podcast,https://www.youtube.com/channel/UC_Xg1bgPH1hPHTvnhwOe2pg,0K-Vc-__FXs,Why Kenyan Marriages Are Failing ‚Äî And Yours Might Be Next!,https://i.ytimg.com/vi/0K-Vc-__FXs/mqdefault.jpg,2025-07-18T09:28:12Z,"Welcome to Kenya News Podcast. A channel that gives you social news including celebrity gossip, and social news including sports news happening locally and globally. Subscribe to my YouTube channel 
",podcast,17,5588,35
84,UC6Tmut7PkgYQHSdnVgwSPQw,JMTpodcast KE,https://www.youtube.com/channel/UC6Tmut7PkgYQHSdnVgwSPQw,aikbhDBZAAo,Thanks From JmtPodcast KE the support and  news are encouraging‚ù§üôèüôè #news #breaking #popular #cute !,https://i.ytimg.com/vi/aikbhDBZAAo/mqdefault.jpg,2022-07-10T01:25:12Z,"At jmt podcast is the place for news, conversations and real talk. This podcast  started Kenya and USA and focuses on episodes of real issues and commentaries on social issues. Like mantalk ke and tmi, the conversations are real and fun. Join us on our podcast and hop on this journey with us! #jmt #pop #podcast #respect.",podcast,75,287,2
85,UCKbyEEyMbxs31_p_Akbw_fQ,üéôKENYAN PODCASTSüéô,https://www.youtube.com/channel/UCKbyEEyMbxs31_p_Akbw_fQ,AWttE9sU0VI,#youtube #podcast #youtubeshorts #kenya #kenyanpodcast #love #relationship #vibes #trending #fyp,https://i.ytimg.com/vi/AWttE9sU0VI/mqdefault.jpg,2024-01-30T07:39:42Z,"Dive into good vibes with KENYA PODCASTS. Groovy tunes, chill chats, and positive vibes ‚Äì your weekly escape to a better mood. Tune in and vibe with us!",podcast,18,3663,3
86,UCYi4QdrP-vPkbJ2rN0Pb35g,Kenyan Love Talks & Advice podcast,https://www.youtube.com/channel/UCYi4QdrP-vPkbJ2rN0Pb35g,wBXGYnuk7VQ,klta podcast episode 5: Meet Kamba Benga musician #mwiyendei Boyz Band,https://i.ytimg.com/vi/wBXGYnuk7VQ/mqdefault.jpg,2025-07-09T14:32:09Z,"Welcome to Kenyan Love Talks and Advice! We discuss relationships, dating, and marriage in Kenya. Subscribe for real talk, love tips, and fun debates!",podcast,30,1009,9
87,UCwGBF4-qaUOlix0-7gJgXZA,Woman Kenya Network,https://www.youtube.com/channel/UCwGBF4-qaUOlix0-7gJgXZA,PBu6mx0jsac,The inspiring story of Sarah Kabu: From poverty to success,https://i.ytimg.com/vi/PBu6mx0jsac/mqdefault.jpg,2025-02-25T12:33:29Z,"Woman Kenya Network (WOKN) is a distinguished digital media company committed to using the media to use the media to advocate for gender equality, promote just portrayal, and amplify women's voices in society. Our platforms have become a trusted and reliable source of information on gender-sensitive content covering diverse thematic areas including Politics, Climate, Peace and Security, Gender Justice, Health, Economic Empowerment, and SRHR as guided by SDG 5: Achieve gender equality and empower all women and girls. 
WOKN is known for: Kenya's Top 20 Most Influential Women Awards and Her Standards TV Talk Show. Our talk show is a platform for high-impact gender stories, shining a spotlight on success narratives, and sparking thoughtful dialogues. We profile women trailblazers who have significantly impacted their communities, encompassing Change Makers, Decision-makers, and News breakers.



",podcast,17,737,9
88,UCQFja3n1zr4YqVVDUOTw8pQ,Let‚Äôs Talk About It! With Kenya,https://www.youtube.com/channel/UCQFja3n1zr4YqVVDUOTw8pQ,0__nnikq7Mc,Episode 1,https://i.ytimg.com/vi/0__nnikq7Mc/mqdefault.jpg,2019-12-05T04:29:39Z,"Welcome to my channel!  Let‚Äôs Talk About It! With Kenya. This channel is where you will hear me talk about everything under the sun! If it‚Äôs happening in the world today, then I‚Äôm discussing it. I‚Äôll also have special guests on the show! Sit back, enjoy and let‚Äôs begin talking about it! Don‚Äôt forget to subscribe and click that notification button!üòò",interview,31,211,2
89,UC7qVHFnZbwzjy2aAXtXljkA,Kenya News Podcast,https://www.youtube.com/channel/UC7qVHFnZbwzjy2aAXtXljkA,GRLu_z50AxA,"Kenya's Leadership Crisis: Impunity, Violence, and Unanswered Calls for Reform",https://i.ytimg.com/vi/GRLu_z50AxA/mqdefault.jpg,2025-07-14T01:06:22Z,,podcast,12,1154,68
90,UChKV1lwcEOON6Sdc7v0gqMg,Nairobi Teacher & Family Podcast,https://www.youtube.com/channel/UChKV1lwcEOON6Sdc7v0gqMg,3qR1Y-LlQJA,My 3 Year Old Son Finally Rides A Bicycle on His own,https://i.ytimg.com/vi/3qR1Y-LlQJA/mqdefault.jpg,2025-02-18T14:11:02Z,,podcast,37,108,2
91,UC-KhQkCyDkfnXWvk2ftLS8w,Nairobi Podcast Studio.,https://www.youtube.com/channel/UC-KhQkCyDkfnXWvk2ftLS8w,o13VvXkGsZQ,"The Forbidden Topics, #podcast #follow #shorts #youtubeshorts #viralvideo #nairobipodcaststudio",https://i.ytimg.com/vi/o13VvXkGsZQ/mqdefault.jpg,2025-04-04T12:45:06Z,"Welcome to Nairobi Podcast Studio! üéôÔ∏èüá∞üá™
Your go-to space for engaging conversations, inspiring stories, and thought-provoking discussions. We bring you exclusive interviews, deep dives into culture, music, business, and everything that shapes Nairobi and beyond.
https://nairobipodcast.co.ke

Subscribe now and be part of the conversation! üîî #NairobiPodcastStudio #StayTuned
",interview,22,278,3
92,UCgpIl6p9PVuQaR9rtw2EC-g,The Statement,https://www.youtube.com/channel/UCgpIl6p9PVuQaR9rtw2EC-g,wQnuQ3vh-O4,Fun moments with Miss world Kenya Sharon Obara in studio #thestatement,https://i.ytimg.com/vi/wQnuQ3vh-O4/mqdefault.jpg,2022-10-26T04:21:09Z,"A talk show that promotes Kenyan Fashion, Entertainment, and Lifestyle industries

Website: ntvkenya.co.ke/podcast || Spotify || Instagram: Thestatementonntv",podcast,13,570,9
93,UCFXphqedTzlEtbdTBJcz_Pg,Amped Studios,https://www.youtube.com/channel/UCFXphqedTzlEtbdTBJcz_Pg,ShPpQbMiTK4,Episode 12: Rada?,https://i.ytimg.com/vi/ShPpQbMiTK4/mqdefault.jpg,2020-06-27T03:21:57Z,"""NaiSai"" is an acronym that directly translates to Nairobi Now. This weekly podcast hosted by Dave The MC, Shukid and Harry Lee, would like to join in on the conversations on what's going on in Nairobi and its environs. Join us on this journey as we take on the world!

Follow @kingshukid, @harry_rf and @davetheemc on their instagram accounts.

Instagram - TheNaiSaiPodcast
Facebook - The NaiSai Podcast
Twitter - @thenaisaipodcast",podcast,20,199,12
94,UC3mkNwWVizvUbrv2Kixi5cA,No Z's Podcast,https://www.youtube.com/channel/UC3mkNwWVizvUbrv2Kixi5cA,kwdqCgxkI_Q,#7   Mind your Business (with Finance Lens),https://i.ytimg.com/vi/kwdqCgxkI_Q/mqdefault.jpg,2022-02-23T22:43:54Z,"No Z‚Äòs(No Sleep) podcast is a podcast hosted by photographer and graphic designer Melissa Gachoki. Based in Kenya, this podcast seeks to delve into the issues faced by the modern-day creator through their personal journeys and also hope to help other budding creatives grow to their full potential.",podcast,7,860,8
95,UCT70TSZZ7LlK13jdg4duygg,Tissletti Podcast,https://www.youtube.com/channel/UCT70TSZZ7LlK13jdg4duygg,J6FScj1jhcs,Hon. Nicholas Wanjala on KBC,https://i.ytimg.com/vi/J6FScj1jhcs/mqdefault.jpg,2025-08-17T09:33:05Z,"Douglas Njoroge and Dennis Nyambane cover Politics, Business and News happening in Kenya ",podcast,9,279,15
96,UCd-ySVrUYn4q3P2BduCoQ_Q,BEING KENYAN PODCAST,https://www.youtube.com/channel/UCd-ySVrUYn4q3P2BduCoQ_Q,1goSodCZzy4,live scenes right now from Nairobi Kenya @NTV Kenya,https://i.ytimg.com/vi/1goSodCZzy4/mqdefault.jpg,2023-03-20T12:56:04Z,"We are here to tell you on tales that makes Keny√†ns, Keny√†ns 
This is an affiliate of THE DROP MEDIA KENYA ",podcast,24,42,5
97,UCZWQI17dYmuauYVffoxWi4g,Nerd Kenya Podcast,https://www.youtube.com/channel/UCZWQI17dYmuauYVffoxWi4g,9fTUumXk_I8,Werewolves in Africa?,https://i.ytimg.com/vi/9fTUumXk_I8/mqdefault.jpg,2024-09-20T06:07:24Z,,podcast,12,140,5
98,UCH0hJv_o-vnrkylmlGINg4w,THEE TALK SHOW ,https://www.youtube.com/channel/UCH0hJv_o-vnrkylmlGINg4w,xi9OafZoSog,COMPUTER SCIENCE TUTOR,https://i.ytimg.com/vi/xi9OafZoSog/mqdefault.jpg,2025-06-30T08:14:15Z,"Join us for an engaging and insightful talk show, where we delve into the evolution of Kenya's government regimes over the years. This episode will bring together experts, political analysts, and former officials to examine the shifts in governance, policies, and leadership styles. From the early post-independence administrations to the present, we'll discuss the challenges and triumphs each regime has faced, with a special focus on recent developments and reforms. Tune in to explore how Kenya's political landscape has shaped the nation‚Äôs growth and its citizens' futures. Don't miss out on this thought-provoking conversation about the nation's governance and its implications on the road ahead!",podcast,11,121,8
99,UCWyvW8Hzp6j4acsUtVx4o0g,ON THE TABLE PODCAST KENYA,https://www.youtube.com/channel/UCWyvW8Hzp6j4acsUtVx4o0g,vmdht4c33oo,HOW TO OVERCOME DEPRESSION  |  EPISODE 2 PART B  |  ON THE TABLE PODCAST KENYA  |,https://i.ytimg.com/vi/vmdht4c33oo/mqdefault.jpg,2022-01-28T09:17:17Z,,podcast,10,129,3
100,UCOs9IeCTauz_fqsAUCNspIQ,Nairobi Fashion Runway,https://www.youtube.com/channel/UCOs9IeCTauz_fqsAUCNspIQ,xHxo70MkKmU,Zues - BMW ADVERT.,https://i.ytimg.com/vi/xHxo70MkKmU/mqdefault.jpg,2022-02-13T12:23:16Z, Blog ‚Ä¢ Podcast ‚Ä¢ Magazine,podcast,5,311,25
101,UCls-QnNXFVyjaRD88BfpQFw,podcast kenya,https://www.youtube.com/channel/UCls-QnNXFVyjaRD88BfpQFw,Q-rQ6Kl5Fxc,18 February 2025,https://i.ytimg.com/vi/Q-rQ6Kl5Fxc/mqdefault.jpg,2025-02-18T12:34:24Z,,podcast,2,1066,5
102,UCO8eWiF-795K_Mlj1qvr8zQ,The Tajiri Podcast Kenya,https://www.youtube.com/channel/UCO8eWiF-795K_Mlj1qvr8zQ,2zHEBzSeFto,Boy Child Empowerment,https://i.ytimg.com/vi/2zHEBzSeFto/mqdefault.jpg,2024-05-01T18:00:23Z,,podcast,7,78,6
103,UCVd0nfHlBK4DtJiowKrHPaQ,Nairobi FM Podcast,https://www.youtube.com/channel/UCVd0nfHlBK4DtJiowKrHPaQ,,,,,"üéôÔ∏è Nairobi FM Podcast welcomes you to a captivating exploration of Nairobi's vibrant essence! Join us on a unique auditory journey through culture, entertainment, news, and untold stories, discovering the diverse soundscape of the Kenyan capital. From engaging interviews with local influencers to uncovering hidden gems, each episode promises an immersive experience. Tune in for a harmonious blend of conversations, music, and insights, as we become your companion in the rhythm of urban life. Connect with us on social media, subscribe, and embark on a dynamic journey through the heart of Nairobi!

Twitter: @NairobiFMPodcast
Instagram: @NairobiFMPodcast
Facebook: NairobiFMPodcast

#NairobiFMPodcast #CityVibes #KenyanPodcast üá∞üá™
",interview,65,0,0
104,UCUS_VhmqAG84NiO5WC8g5Hw,Kenya Marketplace Daily Podcast,https://www.youtube.com/channel/UCUS_VhmqAG84NiO5WC8g5Hw,LKyk1iDnQo0,"Insurers Burned, NSE Booms & Stanbic‚Äôs Sh13B Fuel Startup Bet ‚Äî Kenya‚Äôs Economic Whirlwind",https://i.ytimg.com/vi/LKyk1iDnQo0/mqdefault.jpg,2025-06-27T20:37:28Z,"Welcome to Technovaenow! Dive into the latest trends and news in technology, brought to you almost exclusively by AI. Our channel delivers cutting-edge insights, updates, and analysis on everything from emerging technologies to groundbreaking innovations. Whether you're a tech enthusiast or a professional in the field, Technovaenow keeps you informed and ahead of the curve. Subscribe now for your daily dose of tech news, AI-generated with precision and accuracy!",podcast,6,79,12
105,UCFZ6hHWKXv_PSA6F2EA0QcQ,The Nairobi Podcast,https://www.youtube.com/channel/UCFZ6hHWKXv_PSA6F2EA0QcQ,2ZBWkl7a9R8,The Nairobi Podcast | Episode One - Strangers Should Check in on Strangers,https://i.ytimg.com/vi/2ZBWkl7a9R8/mqdefault.jpg,2022-05-13T21:21:28Z,A podcast about all the crazy stories from the faceless people we bump into in Nairobi.,podcast,3,51,1
106,UCQJRfAqzrHalgn_ft96y6sg,Kicking It With Kenya,https://www.youtube.com/channel/UCQJRfAqzrHalgn_ft96y6sg,FwxParFWntI,Too Many Kids Involved In Poly Relationships | Kicking It With Kenya,https://i.ytimg.com/vi/FwxParFWntI/mqdefault.jpg,2020-03-16T06:27:55Z,"Kicking It With Kenya (and Friends) is an online talk show. We discuss trendy topics, taboo topics, unpopular opinions, and interesting situations. Subscribe now!

For business purposes: email us at kickingitwithkenya@gmail.com",podcast,2,72,12
107,UCPH3eL9R-DpepZEgIdt1pHg,Sauti Podcast Kenya - Topic,https://www.youtube.com/channel/UCPH3eL9R-DpepZEgIdt1pHg,EcUOX-IvwnA,Sauti,https://i.ytimg.com/vi/EcUOX-IvwnA/mqdefault.jpg,2023-10-04T15:19:03Z,,podcast,1,122,8
108,UCtcXr-jo23CuvhKwoHBlttg,Nairobi podcast with Dennis Asembo ,https://www.youtube.com/channel/UCtcXr-jo23CuvhKwoHBlttg,m4-fmL0HqLU,Uon freshas night loading this Friday Various artists will be performing ü§≠üëÄüëÄüëÄ don't miss out,https://i.ytimg.com/vi/m4-fmL0HqLU/mqdefault.jpg,2025-09-11T07:45:28Z,"**Nairobi Podcast with Dennis Asembo** is your go-to audio experience for engaging conversations, deep insights, and untold stories from the heart of Kenya‚Äôs capital. Hosted by the dynamic Dennis Asembo, this podcast explores everything from culture, business, and entertainment to politics and social trends, bringing you thought-provoking discussions with industry leaders, change-makers, and everyday Nairobians.  

Whether you're a local, an expat, or just curious about the pulse of Nairobi, tune in for authentic conversations that inform, inspire, and entertain. **Join us on Nairobi Podcast ‚Äì where the city speaks!**",podcast,1,38,3
109,UCtXr4IlBq60XLssv-pKKvYg,kenyan podcast,https://www.youtube.com/channel/UCtXr4IlBq60XLssv-pKKvYg,tnHTx6hckRg,The Kenyan podcast,https://i.ytimg.com/vi/tnHTx6hckRg/mqdefault.jpg,2024-04-24T10:08:57Z,,podcast,1,36,2
110,UCKHjbUHMA_lL6X0y0RALUZw,KENYA GOSSIP PODCAST,https://www.youtube.com/channel/UCKHjbUHMA_lL6X0y0RALUZw,bcFslcb2uSw,Keane-somewhere only we know(nurturing my talent),https://i.ytimg.com/vi/bcFslcb2uSw/mqdefault.jpg,2025-05-18T14:36:32Z,"we tell the latest news
here on kenya 
gossip 
",podcast,4,4,2
111,UC3QQT3WkN9zpg0WfUlQKgrQ,Spark's House Podcast ,https://www.youtube.com/channel/UC3QQT3WkN9zpg0WfUlQKgrQ,bMuWUrzGUNw,Nairobi Meets London: Spark's House Podcast Coming Soon! (Don't Miss Out!),https://i.ytimg.com/vi/bMuWUrzGUNw/mqdefault.jpg,2025-03-06T00:04:42Z,"üî• Welcome to Spark's House! üî•

Where the vibes of Nairobi meet the energy of London. üéß

Get ready for a wild ride of hilarious stories, insightful discussions, and banging music. We're bringing you the best of both worlds, with guests from Kenya and the UK. üá∞üá™üá¨üáß

Subscribe now and join the Spark's House family! You don't want to miss out on the fun. üòâ

#SparksHouse #podcast  #kenya  #uk  #nairobi  #london  #culture  #music  #comedy  #goodvibes 
",podcast,0,4,1
112,UC0QoMRcxQwgV6COKyd0nn0Q,The Nairobi Vibe Podcast ,https://www.youtube.com/channel/UC0QoMRcxQwgV6COKyd0nn0Q,,,,,"Welcome to The Nairobi Vibe Podcast! üåç‚ú®
Your go-to space for real conversations, raw stories, and fresh perspectives straight from the heart of Nairobi.

From street hustle and pop culture to politics, lifestyle, and youth experiences, we dive deep into the issues that matter ‚Äì unfiltered and unapologetic. Whether it‚Äôs laughter, inspiration, or thought-provoking talk, we‚Äôve got the vibe that keeps you connected to the city and beyond.

üéß Tune in every week for engaging stories, trending topics, and voices that shape the Nairobi experience.

üëâ Don‚Äôt forget to subscribe, hit the notification bell, and join the Nairobi Vibe community today!",podcast,1,0,1
